start=new Date('2022-12-22T00:00:00.000Z').valueOf();
sats=[{"ECCENTRICITY":"0.00020210","MEAN_MOTION_DDOT":"0.0000000000000","MEAN_MOTION":"15.08824952","GP_ID":"221124150","MEAN_ANOMALY":"324.2836","PERIOD":"95.439","MEAN_ELEMENT_THEORY":"SGP4","EPHEMERIS_TYPE":"0","ELEMENT_SET_NO":"999","REF_FRAME":"TEME","DECAY_DATE":null,"TIME_SYSTEM":"UTC","ARG_OF_PERICENTER":"35.8291","RA_OF_ASC_NODE":"295.1146","MEAN_MOTION_DOT":"-0.00001872","RCS_SIZE":"LARGE","CLASSIFICATION_TYPE":"U","NORAD_CAT_ID":"53540","EPOCH":"2022-12-21T12:45:36.353664","REV_AT_EPOCH":"1904","OBJECT_TYPE":"PAYLOAD","LAUNCH_DATE":"2022-08-19","PERIAPSIS":"538.393","BSTAR":"-0.00009960300000","TLE_LINE1":"1 53540U 22101P   22355.53167076 -.00001872  00000-0 -99603-4 0  9996","COUNTRY_CODE":"US","APOAPSIS":"541.189","FILE":"3716820","CENTER_NAME":"EARTH","TLE_LINE2":"2 53540  53.2164 295.1146 0002021  35.8291 324.2836 15.08824952 19047","OBJECT_ID":"2022-101P","SITE":"AFETR","OBJECT_NAME":"STARLINK-4486","INCLINATION":"53.2164","SEMIMAJOR_AXIS":"6917.926"},{"EPOCH":"2022-12-21T07:24:44.246880","NORAD_CAT_ID":"53541","CLASSIFICATION_TYPE":"U","RCS_SIZE":"MEDIUM","MEAN_MOTION_DOT":"0.00001304","RA_OF_ASC_NODE":"306.1130","ARG_OF_PERICENTER":"8.1440","TIME_SYSTEM":"UTC","DECAY_DATE":null,"REF_FRAME":"TEME","ELEMENT_SET_NO":"999","EPHEMERIS_TYPE":"0","MEAN_ELEMENT_THEORY":"SGP4","PERIOD":"95.437","MEAN_ANOMALY":"146.0621","GP_ID":"221121706","MEAN_MOTION":"15.08845942","MEAN_MOTION_DDOT":"0.0000000000000","ECCENTRICITY":"0.00018620","SEMIMAJOR_AXIS":"6917.862","INCLINATION":"53.2246","OBJECT_NAME":"STARLINK-4485","SITE":"AFETR","OBJECT_ID":"2022-101Q","TLE_LINE2":"2 53541  53.2246 306.1130 0001862   8.1440 146.0621 15.08845942 18870","CENTER_NAME":"EARTH","FILE":"3716669","APOAPSIS":"541.015","COUNTRY_CODE":"US","TLE_LINE1":"1 53541U 22101Q   22355.30884545  .00001304  00000-0  10000-3 0  9990","BSTAR":"0.00010000000000","PERIAPSIS":"538.439","LAUNCH_DATE":"2022-08-19","OBJECT_TYPE":"PAYLOAD","REV_AT_EPOCH":"1887"},{"SEMIMAJOR_AXIS":"6917.914","INCLINATION":"53.2161","SITE":"AFETR","OBJECT_NAME":"STARLINK-4489","OBJECT_ID":"2022-101R","TLE_LINE2":"2 53542  53.2161 296.9329 0001579  41.6285 318.4828 15.08828883 19675","CENTER_NAME":"EARTH","FILE":"3716551","APOAPSIS":"540.872","COUNTRY_CODE":"US","BSTAR":"-0.00056894000000","TLE_LINE1":"1 53542U 22101R   22355.12685260 -.00009329  00000-0 -56894-3 0  9992","PERIAPSIS":"538.687","OBJECT_TYPE":"PAYLOAD","LAUNCH_DATE":"2022-08-19","REV_AT_EPOCH":"1967","EPOCH":"2022-12-21T03:02:40.064640","NORAD_CAT_ID":"53542","RCS_SIZE":"LARGE","CLASSIFICATION_TYPE":"U","RA_OF_ASC_NODE":"296.9329","ARG_OF_PERICENTER":"41.6285","MEAN_MOTION_DOT":"-0.00009329","TIME_SYSTEM":"UTC","ELEMENT_SET_NO":"999","REF_FRAME":"TEME","DECAY_DATE":null,"MEAN_ELEMENT_THEORY":"SGP4","EPHEMERIS_TYPE":"0","PERIOD":"95.438","MEAN_ANOMALY":"318.4828","MEAN_MOTION_DDOT":"0.0000000000000","GP_ID":"221121127","MEAN_MOTION":"15.08828883","ECCENTRICITY":"0.00015790"},{"NORAD_CAT_ID":"53543","EPOCH":"2022-12-21T06:34:41.989440","RCS_SIZE":"LARGE","CLASSIFICATION_TYPE":"U","TIME_SYSTEM":"UTC","RA_OF_ASC_NODE":"296.3405","ARG_OF_PERICENTER":"92.3648","MEAN_MOTION_DOT":"-0.00002989","ELEMENT_SET_NO":"999","REF_FRAME":"TEME","DECAY_DATE":null,"MEAN_ELEMENT_THEORY":"SGP4","EPHEMERIS_TYPE":"0","MEAN_ANOMALY":"267.7549","PERIOD":"95.438","ECCENTRICITY":"0.00017880","MEAN_MOTION_DDOT":"0.0000000000000","MEAN_MOTION":"15.08827648","GP_ID":"221121309","INCLINATION":"53.2181","SEMIMAJOR_AXIS":"6917.918","OBJECT_ID":"2022-101S","SITE":"AFETR","OBJECT_NAME":"STARLINK-4297","TLE_LINE2":"2 53543  53.2181 296.3405 0001788  92.3648 267.7549 15.08827648 19691","FILE":"3716551","CENTER_NAME":"EARTH","COUNTRY_CODE":"US","APOAPSIS":"541.020","PERIAPSIS":"538.546","BSTAR":"-0.00016980000000","TLE_LINE1":"1 53543U 22101S   22355.27409710 -.00002989  00000-0 -16980-3 0  9990","REV_AT_EPOCH":"1969","OBJECT_TYPE":"PAYLOAD","LAUNCH_DATE":"2022-08-19"},{"APOAPSIS":"541.077","COUNTRY_CODE":"US","BSTAR":"-0.00032851000000","TLE_LINE1":"1 53544U 22101T   22355.31823032 -.00005512  00000-0 -32851-3 0  9993","PERIAPSIS":"538.426","OBJECT_TYPE":"PAYLOAD","LAUNCH_DATE":"2022-08-19","REV_AT_EPOCH":"1968","SEMIMAJOR_AXIS":"6917.886","INCLINATION":"53.2170","SITE":"AFETR","OBJECT_NAME":"STARLINK-4303","OBJECT_ID":"2022-101T","TLE_LINE2":"2 53544  53.2170 296.0769 0001916  42.9652 317.1489 15.08838116 19683","CENTER_NAME":"EARTH","FILE":"3716551","MEAN_ELEMENT_THEORY":"SGP4","EPHEMERIS_TYPE":"0","PERIOD":"95.438","MEAN_ANOMALY":"317.1489","MEAN_MOTION_DDOT":"0.0000000000000","GP_ID":"221119859","MEAN_MOTION":"15.08838116","ECCENTRICITY":"0.00019160","EPOCH":"2022-12-21T07:38:15.099648","NORAD_CAT_ID":"53544","RCS_SIZE":"LARGE","CLASSIFICATION_TYPE":"U","RA_OF_ASC_NODE":"296.0769","ARG_OF_PERICENTER":"42.9652","MEAN_MOTION_DOT":"-0.00005512","TIME_SYSTEM":"UTC","ELEMENT_SET_NO":"999","REF_FRAME":"TEME","DECAY_DATE":null},{"ECCENTRICITY":"0.00019930","MEAN_MOTION_DDOT":"0.0000000000000","GP_ID":"221120070","MEAN_MOTION":"15.08827733","MEAN_ANOMALY":"305.0522","PERIOD":"95.438","MEAN_ELEMENT_THEORY":"SGP4","EPHEMERIS_TYPE":"0","ELEMENT_SET_NO":"999","DECAY_DATE":null,"REF_FRAME":"TEME","TIME_SYSTEM":"UTC","ARG_OF_PERICENTER":"55.0657","RA_OF_ASC_NODE":"297.2164","MEAN_MOTION_DOT":"-0.00000471","RCS_SIZE":"LARGE","CLASSIFICATION_TYPE":"U","NORAD_CAT_ID":"53545","EPOCH":"2022-12-21T01:32:37.261824","REV_AT_EPOCH":"1966","LAUNCH_DATE":"2022-08-19","OBJECT_TYPE":"PAYLOAD","PERIAPSIS":"538.404","BSTAR":"-0.00001151100000","TLE_LINE1":"1 53545U 22101U   22355.06432016 -.00000471  00000-0 -11511-4 0  9994","COUNTRY_CODE":"US","APOAPSIS":"541.162","FILE":"3716551","CENTER_NAME":"EARTH","TLE_LINE2":"2 53545  53.2171 297.2164 0001993  55.0657 305.0522 15.08827733 19667","OBJECT_ID":"2022-101U","SITE":"AFETR","OBJECT_NAME":"STARLINK-4475","INCLINATION":"53.2171","SEMIMAJOR_AXIS":"6917.918"},{"COUNTRY_CODE":"US","APOAPSIS":"540.968","PERIAPSIS":"538.504","TLE_LINE1":"1 53546U 22101V   22355.53254005 -.00000337  00000-0 -30627-5 0  9998","BSTAR":"-0.00000306270000","REV_AT_EPOCH":"1919","OBJECT_TYPE":"PAYLOAD","LAUNCH_DATE":"2022-08-19","INCLINATION":"53.2191","SEMIMAJOR_AXIS":"6917.871","OBJECT_ID":"2022-101V","OBJECT_NAME":"STARLINK-4477","SITE":"AFETR","TLE_LINE2":"2 53546  53.2191 284.6338 0001781  65.2683 294.8494 15.08843055 19196","FILE":"3716821","CENTER_NAME":"EARTH","EPHEMERIS_TYPE":"0","MEAN_ELEMENT_THEORY":"SGP4","MEAN_ANOMALY":"294.8494","PERIOD":"95.437","ECCENTRICITY":"0.00017810","MEAN_MOTION":"15.08843055","GP_ID":"221124157","MEAN_MOTION_DDOT":"0.0000000000000","NORAD_CAT_ID":"53546","EPOCH":"2022-12-21T12:46:51.460320","CLASSIFICATION_TYPE":"U","RCS_SIZE":"LARGE","TIME_SYSTEM":"UTC","MEAN_MOTION_DOT":"-0.00000337","ARG_OF_PERICENTER":"65.2683","RA_OF_ASC_NODE":"284.6338","REF_FRAME":"TEME","DECAY_DATE":null,"ELEMENT_SET_NO":"999"},{"EPHEMERIS_TYPE":"0","MEAN_ELEMENT_THEORY":"SGP4","MEAN_ANOMALY":"307.5611","PERIOD":"95.438","ECCENTRICITY":"0.00016560","MEAN_MOTION":"15.08828260","GP_ID":"221120916","MEAN_MOTION_DDOT":"0.0000000000000","NORAD_CAT_ID":"53547","EPOCH":"2022-12-21T07:43:32.604960","CLASSIFICATION_TYPE":"U","RCS_SIZE":"LARGE","TIME_SYSTEM":"UTC","MEAN_MOTION_DOT":"-0.00004331","RA_OF_ASC_NODE":"296.0555","ARG_OF_PERICENTER":"52.5531","DECAY_DATE":null,"REF_FRAME":"TEME","ELEMENT_SET_NO":"999","COUNTRY_CODE":"US","APOAPSIS":"540.927","PERIAPSIS":"538.636","TLE_LINE1":"1 53547U 22101W   22355.32190515 -.00004331  00000-0 -25424-3 0  9996","BSTAR":"-0.00025424000000","REV_AT_EPOCH":"1968","LAUNCH_DATE":"2022-08-19","OBJECT_TYPE":"PAYLOAD","INCLINATION":"53.2156","SEMIMAJOR_AXIS":"6917.916","OBJECT_ID":"2022-101W","OBJECT_NAME":"STARLINK-4474","SITE":"AFETR","TLE_LINE2":"2 53547  53.2156 296.0555 0001656  52.5531 307.5611 15.08828260 19686","FILE":"3716551","CENTER_NAME":"EARTH"},{"TLE_LINE2":"2 53548  53.2197 297.0141 0001154  60.0947 300.0160 15.08836622 18982","CENTER_NAME":"EARTH","FILE":"3716551","SEMIMAJOR_AXIS":"6917.891","INCLINATION":"53.2197","SITE":"AFETR","OBJECT_NAME":"STARLINK-4513","OBJECT_ID":"2022-101X","BSTAR":"-0.00006003500000","TLE_LINE1":"1 53548U 22101X   22355.10845842 -.00001243  00000-0 -60035-4 0  9990","PERIAPSIS":"538.957","LAUNCH_DATE":"2022-08-19","OBJECT_TYPE":"PAYLOAD","REV_AT_EPOCH":"1898","APOAPSIS":"540.554","COUNTRY_CODE":"US","ARG_OF_PERICENTER":"60.0947","RA_OF_ASC_NODE":"297.0141","MEAN_MOTION_DOT":"-0.00001243","TIME_SYSTEM":"UTC","ELEMENT_SET_NO":"999","REF_FRAME":"TEME","DECAY_DATE":null,"EPOCH":"2022-12-21T02:36:10.807488","NORAD_CAT_ID":"53548","RCS_SIZE":"LARGE","CLASSIFICATION_TYPE":"U","MEAN_MOTION_DDOT":"0.0000000000000","MEAN_MOTION":"15.08836622","GP_ID":"221120311","ECCENTRICITY":"0.00011540","MEAN_ELEMENT_THEORY":"SGP4","EPHEMERIS_TYPE":"0","PERIOD":"95.438","MEAN_ANOMALY":"300.0160"},{"INCLINATION":"53.2175","SEMIMAJOR_AXIS":"6917.930","OBJECT_ID":"2022-101Y","SITE":"AFETR","OBJECT_NAME":"STARLINK-4516","TLE_LINE2":"2 53549  53.2175 294.8983 0001236  62.4659 297.6459 15.08823901 19052","FILE":"3716821","CENTER_NAME":"EARTH","COUNTRY_CODE":"US","APOAPSIS":"540.650","PERIAPSIS":"538.940","BSTAR":"-0.00010941000000","TLE_LINE1":"1 53549U 22101Y   22355.57951350 -.00002028  00000-0 -10941-3 0  9996","REV_AT_EPOCH":"1905","OBJECT_TYPE":"PAYLOAD","LAUNCH_DATE":"2022-08-19","NORAD_CAT_ID":"53549","EPOCH":"2022-12-21T13:54:29.966400","RCS_SIZE":"LARGE","CLASSIFICATION_TYPE":"U","TIME_SYSTEM":"UTC","ARG_OF_PERICENTER":"62.4659","RA_OF_ASC_NODE":"294.8983","MEAN_MOTION_DOT":"-0.00002028","ELEMENT_SET_NO":"999","DECAY_DATE":null,"REF_FRAME":"TEME","MEAN_ELEMENT_THEORY":"SGP4","EPHEMERIS_TYPE":"0","MEAN_ANOMALY":"297.6459","PERIOD":"95.439","ECCENTRICITY":"0.00012360","MEAN_MOTION_DDOT":"0.0000000000000","GP_ID":"221124463","MEAN_MOTION":"15.08823901"}];
